CTC1_L_00351016-03
1 10062U 25784FJ  26075.70033565  .00000000  00000+0  00000-0 0  9993
2 10062  50.0000 180.0000 0000000   0.0000   0.0000 13.72670257    16
CTC1_L_00351016-04
1 10063U 25271UD  26075.70033565  .00000000  00000+0  00000-0 0  9995
2 10063  50.0000 180.0000 0000000   0.0000  90.0000 13.72670257    16
CTC1_L_00351017-01
1 10064U 22421VH  26075.70033565  .00000000  00000+0  00000-0 0  9990
2 10064  50.0000 192.0000 0000000   0.0000 192.0000 13.72670257    13
CTC1_L_00351017-02
1 10065U 23663GC  26075.70033565  .00000000  00000+0  00000-0 0  9990
2 10065  50.0000 192.0000 0000000   0.0000 282.0000 13.72670257    14
CTC1_L_00351017-03
1 10066U 26985KZ  26075.70033565  .00000000  00000+0  00000-0 0  9991
2 10066  50.0000 192.0000 0000000   0.0000  12.0000 13.72670257    16
CTC1_L_00351017-04
1 10067U 23224AQ  26075.70033565  .00000000  00000+0  00000-0 0  9995
2 10067  50.0000 192.0000 0000000   0.0000 102.0000 13.72670257    17
CTC1_L_00351018-01
1 10068U 26417GI  26075.70033565  .00000000  00000+0  00000-0 0  9993
2 10068  50.0000 204.0000 0000000   0.0000 204.0000 13.72670257    15
CTC1_L_00351018-02
1 10069U 22356GC  26075.70033565  .00000000  00000+0  00000-0 0  9992
2 10069  50.0000 204.0000 0000000   0.0000 294.0000 13.72670257    15
CTC1_L_00351018-03
1 10070U 24588GL  26075.70033565  .00000000  00000+0  00000-0 0  9993
2 10070  50.0000 204.0000 0000000   0.0000  24.0000 13.72670257    18
CTC1_L_00351018-04
1 10071U 23015RN  26075.70033565  .00000000  00000+0  00000-0 0  9998
2 10071  50.0000 204.0000 0000000   0.0000 114.0000 13.72670257    19
CTC1_L_00351019-01
1 10072U 22590EU  26075.70033565  .00000000  00000+0  00000-0 0  9996
2 10072  50.0000 216.0000 0000000   0.0000 216.0000 13.72670257    16
CTC1_L_00351019-02
1 10073U 24826LM  26075.70033565  .00000000  00000+0  00000-0 0  9991
2 10073  50.0000 216.0000 0000000   0.0000 306.0000 13.72670257    17
CTC1_L_00351019-03
1 10074U 25695NC  26075.70033565  .00000000  00000+0  00000-0 0  9997
2 10074  50.0000 216.0000 0000000   0.0000  36.0000 13.72670257    18
CTC1_L_00351019-04
1 10075U 25026SC  26075.70033565  .00000000  00000+0  00000-0 0  9996
2 10075  50.0000 216.0000 0000000   0.0000 126.0000 13.72670257    19
CTC1_L_00351020-01
1 10076U 24031PC  26075.70033565  .00000000  00000+0  00000-0 0  9992
2 10076  50.0000 228.0000 0000000   0.0000 228.0000 13.72670257    16
CTC1_L_00351020-02
1 10077U 26785FK  26075.70033565  .00000000  00000+0  00000-0 0  9991
2 10077  50.0000 228.0000 0000000   0.0000 318.0000 13.72670257    17
CTC1_L_00351020-03
1 10078U 23749J   26075.70033565  .00000000  00000+0  00000-0 0  9999
2 10078  50.0000 228.0000 0000000   0.0000  48.0000 13.72670257    18
CTC1_L_00351020-04
1 10079U 22556PE  26075.70033565  .00000000  00000+0  00000-0 0  9995
2 10079  50.0000 228.0000 0000000   0.0000 138.0000 13.72670257    19
CTC1_L_00351021-01
1 10080U 23674QY  26075.70033565  .00000000  00000+0  00000-0 0  9999
2 10080  50.0000 240.0000 0000000   0.0000 240.0000 13.72670257    19
CTC1_L_00351021-02
1 10081U 25216UL  26075.70033565  .00000000  00000+0  00000-0 0  9994
2 10081  50.0000 240.0000 0000000   0.0000 330.0000 13.72670257    10
CTC1_L_00351021-03
1 10082U 25815FD  26075.70033565  .00000000  00000+0  00000-0 0  9990
2 10082  50.0000 240.0000 0000000   0.0000  60.0000 13.72670257    11
CTC1_L_00351021-04
1 10083U 22614AT  26075.70033565  .00000000  00000+0  00000-0 0  9995
2 10083  50.0000 240.0000 0000000   0.0000 150.0000 13.72670257    12
CTC1_L_00351022-01
1 10084U 22198TT  26075.70033565  .00000000  00000+0  00000-0 0  9993
2 10084  50.0000 252.0000 0000000   0.0000 252.0000 13.72670257    19
CTC1_L_00351022-02
1 10085U 24437VC  26075.70033565  .00000000  00000+0  00000-0 0  9992
2 10085  50.0000 252.0000 0000000   0.0000 342.0000 13.72670257    10
CTC1_L_00351022-03
1 10086U 22856AI  26075.70033565  .00000000  00000+0  00000-0 0  9996
2 10086  50.0000 252.0000 0000000   0.0000  72.0000 13.72670257    11
CTC1_L_00351022-04
1 10087U 26037DL  26075.70033565  .00000000  00000+0  00000-0 0  9992
2 10087  50.0000 252.0000 0000000   0.0000 162.0000 13.72670257    12
CTC1_L_00351023-01
1 10088U 26934SM  26075.70033565  .00000000  00000+0  00000-0 0  9999
2 10088  50.0000 264.0000 0000000   0.0000 264.0000 13.72670257    19
CTC1_L_00351023-02
1 10089U 26032EN  26075.70033565  .00000000  00000+0  00000-0 0  9999
2 10089  50.0000 264.0000 0000000   0.0000 354.0000 13.72670257    10
CTC1_L_00351023-03
1 10090U 23285RY  26075.70033565  .00000000  00000+0  00000-0 0  9998
2 10090  50.0000 264.0000 0000000   0.0000  84.0000 13.72670257    12
CTC1_L_00351023-04
1 10091U 22550ZR  26075.70033565  .00000000  00000+0  00000-0 0  9993
2 10091  50.0000 264.0000 0000000   0.0000 174.0000 13.72670257    13
CTC1_L_00351024-01
1 10092U 26996AK  26075.70033565  .00000000  00000+0  00000-0 0  9992
2 10092  50.0000 276.0000 0000000   0.0000 276.0000 13.72670257    10
CTC1_L_00351024-02
1 10093U 26139VA  26075.70033565  .00000000  00000+0  00000-0 0  9992
2 10093  50.0000 276.0000 0000000   0.0000   6.0000 13.72670257    12
CTC1_L_00351024-03
1 10094U 25109KC  26075.70033565  .00000000  00000+0  00000-0 0  9999
2 10094  50.0000 276.0000 0000000   0.0000  96.0000 13.72670257    12
CTC1_L_00351024-04
1 10095U 26440VG  26075.70033565  .00000000  00000+0  00000-0 0  9999
2 10095  50.0000 276.0000 0000000   0.0000 186.0000 13.72670257    13
CTC1_L_00351025-01
1 10096U 24169UK  26075.70033565  .00000000  00000+0  00000-0 0  9996
2 10096  50.0000 288.0000 0000000   0.0000 288.0000 13.72670257    10
CTC1_L_00351025-02
1 10097U 24574NZ  26075.70033565  .00000000  00000+0  00000-0 0  9997
2 10097  50.0000 288.0000 0000000   0.0000  18.0000 13.72670257    12
CTC1_L_00351025-03
1 10098U 25820HW  26075.70033565  .00000000  00000+0  00000-0 0  9993
2 10098  50.0000 288.0000 0000000   0.0000 108.0000 13.72670257    13
CTC1_L_00351025-04
1 10099U 25858HC  26075.70033565  .00000000  00000+0  00000-0 0  9995
2 10099  50.0000 288.0000 0000000   0.0000 198.0000 13.72670257    13
CTC1_L_00351026-01
1 10100U 23735GI  26075.70033565  .00000000  00000+0  00000-0 0  9990
2 10100  50.0000 300.0000 0000000   0.0000 300.0000 13.72670257    16
CTC1_L_00351026-02
1 10101U 24696WO  26075.70033565  .00000000  00000+0  00000-0 0  9998
2 10101  50.0000 300.0000 0000000   0.0000  30.0000 13.72670257    17
CTC1_L_00351026-03
1 10102U 22871R   26075.70033565  .00000000  00000+0  00000-0 0  9992
2 10102  50.0000 300.0000 0000000   0.0000 120.0000 13.72670257    18
CTC1_L_00351026-04
1 10103U 22540FX  26075.70033565  .00000000  00000+0  00000-0 0  9996
2 10103  50.0000 300.0000 0000000   0.0000 210.0000 13.72670257    19
CTC1_L_00351027-01
1 10104U 22104BI  26075.70033565  .00000000  00000+0  00000-0 0  9993
2 10104  50.0000 312.0000 0000000   0.0000 312.0000 13.72670257    16
CTC1_L_00351027-02
1 10105U 24202WV  26075.70033565  .00000000  00000+0  00000-0 0  9995
2 10105  50.0000 312.0000 0000000   0.0000  42.0000 13.72670257    17
CTC1_L_00351027-03
1 10106U 24929XM  26075.70033565  .00000000  00000+0  00000-0 0  9992
2 10106  50.0000 312.0000 0000000   0.0000 132.0000 13.72670257    18
CTC1_L_00351027-04
1 10107U 23854CU  26075.70033565  .00000000  00000+0  00000-0 0  9999
2 10107  50.0000 312.0000 0000000   0.0000 222.0000 13.72670257    19
CTC1_L_00351028-01
1 10108U 24719UM  26075.70033565  .00000000  00000+0  00000-0 0  9991
2 10108  50.0000 324.0000 0000000   0.0000 324.0000 13.72670257    16
CTC1_L_00351028-02
1 10109U 22068ZY  26075.70033565  .00000000  00000+0  00000-0 0  9997
2 10109  50.0000 324.0000 0000000   0.0000  54.0000 13.72670257    17
CTC1_L_00351028-03
1 10110U 22415GB  26075.70033565  .00000000  00000+0  00000-0 0  9995
2 10110  50.0000 324.0000 0000000   0.0000 144.0000 13.72670257    19
CTC1_L_00351028-04
1 10111U 24419VY  26075.70033565  .00000000  00000+0  00000-0 0  9992
2 10111  50.0000 324.0000 0000000   0.0000 234.0000 13.72670257    10
CTC1_L_00351029-01
1 10112U 23715YL  26075.70033565  .00000000  00000+0  00000-0 0  9991
2 10112  50.0000 336.0000 0000000   0.0000 336.0000 13.72670257    17
CTC1_L_00351029-02
1 10113U 25263WT  26075.70033565  .00000000  00000+0  00000-0 0  9992
2 10113  50.0000 336.0000 0000000   0.0000  66.0000 13.72670257    18
CTC1_L_00351029-03
1 10114U 24032UQ  26075.70033565  .00000000  00000+0  00000-0 0  9996
2 10114  50.0000 336.0000 0000000   0.0000 156.0000 13.72670257    19
CTC1_L_00351029-04
1 10115U 24556QS  26075.70033565  .00000000  00000+0  00000-0 0  9998
2 10115  50.0000 336.0000 0000000   0.0000 246.0000 13.72670257    10
CTC1_L_00351030-01
1 10116U 26616MQ  26075.70033565  .00000000  00000+0  00000-0 0  9998
2 10116  50.0000 348.0000 0000000   0.0000 348.0000 13.72670257    17
CTC1_L_00351030-02
1 10117U 26883PK  26075.70033565  .00000000  00000+0  00000-0 0  9995
2 10117  50.0000 348.0000 0000000   0.0000  78.0000 13.72670257    18
CTC1_L_00351030-03
1 10118U 22852ME  26075.70033565  .00000000  00000+0  00000-0 0  9998
2 10118  50.0000 348.0000 0000000   0.0000 168.0000 13.72670257    19
CTC1_L_00351030-04
1 10119U 24304SS  26075.70033565  .00000000  00000+0  00000-0 0  9993
2 10119  50.0000 348.0000 0000000   0.0000 258.0000 13.72670257    10
